COSMOS 2361 [-]         
1 25590U 98076A   18021.38212230  .00000057  00000-0  45365-4 0  9993
2 25590  82.9364 314.7131 0031720   0.7060 137.0279 13.72944124955613
COSMOS 2378 [-]         
1 26818U 01023A   18021.80508424  .00000027  00000-0  12569-4 0  9990
2 26818  82.9301 335.3874 0032232 312.8288  47.0163 13.73922507833551
COSMOS 2389 [-]         
1 27436U 02026A   18021.20872358  .00000035  00000-0  20465-4 0  9998
2 27436  82.9514 279.8834 0046207 181.0592 335.3034 13.74921734785427
COSMOS 2398 [-]         
1 27818U 03023A   18021.94141210  .00000030  00000-0  15971-4 0  9998
2 27818  82.9470 235.7389 0030728 192.9216 167.1134 13.72152598732935
COSMOS 2407 [+]         
1 28380U 04028A   18022.22214072  .00000010  00000-0 -57884-5 0  9997
2 28380  82.9599 186.1865 0038745 189.0814 170.9632 13.76049188678127
COSMOS 2414 [+]         
1 28521U 05002A   18022.13039858  .00000038  00000-0  18071-4 0  9997
2 28521  82.9480 203.3027 0041811  75.2484 285.3304 13.87595009658644
COSMOS 2429 [-]         
1 32052U 07038A   18021.39823874  .00000040  00000-0  25553-4 0  9994
2 32052  82.9826 307.0053 0038770 161.5183 198.7392 13.74898256519936
COSMOS 2454 [-]         
1 35635U 09039A   18022.21948397  .00000034  00000-0  14658-4 0  9994
2 35635  82.9551 192.5827 0020495  38.0658 322.1950 13.89622273431472
COSMOS 2463 [+]         
1 36519U 10017A   18021.89150355  .00000045  00000-0  33079-4 0  9996
2 36519  82.9624 343.5125 0036766   5.0019 355.1494 13.71420460387448
